{
  "type": "FeatureCollection",
  "features": [
    {
      "type": "Feature",
      "properties": {
        "norad_id": 66953,
        "name": "HULIANWANG DIGUI 15A",
        "group": "last-30-days",
        "lat": -51.2881835377559,
        "lon": -17.51634959525227,
        "alt_km": 1010.6014736325633,
        "timestamp": "2025-12-10T18:56:58.834553+00:00",
        "meta_object_name": "HULIANWANG DIGUI 15A",
        "meta_object_id": "2025-287A",
        "meta_epoch": "2025-12-10T06:55:20.076384",
        "meta_mean_motion": 13.69073793,
        "meta_eccentricity": 0.00082441,
        "meta_inclination": 86.4956,
        "meta_ra_of_asc_node": 347.0512,
        "meta_arg_of_pericenter": 213.3003,
        "meta_mean_anomaly": 146.7638,
        "meta_ephemeris_type": 0,
        "meta_classification_type": "U",
        "meta_norad_cat_id": 66953,
        "meta_element_set_no": 999,
        "meta_rev_at_epoch": 19,
        "meta_bstar": 9.649594e-06,
        "meta_mean_motion_dot": 2.5e-07,
        "meta_mean_motion_ddot": 0,
        "tle_line1": "1 66953U 25287A   25344.28842681  .00000025  00000+0  96496-5 0  9995",
        "tle_line2": "2 66953  86.4956 347.0512 0008244 213.3003 146.7638 13.69073793   194"
      },
      "geometry": {
        "type": "Point",
        "coordinates": [
          -17.51634959525227,
          -51.2881835377559
        ]
      }
    },
    {
      "type": "Feature",
      "properties": {
        "norad_id": 66954,
        "name": "HULIANWANG DIGUI 15B",
        "group": "last-30-days",
        "lat": -50.66655725922877,
        "lon": -17.416196296000148,
        "alt_km": 1010.386406100959,
        "timestamp": "2025-12-10T18:56:58.834565+00:00",
        "meta_object_name": "HULIANWANG DIGUI 15B",
        "meta_object_id": "2025-287B",
        "meta_epoch": "2025-12-10T06:55:12.116352",
        "meta_mean_motion": 13.69168896,
        "meta_eccentricity": 0.00081807,
        "meta_inclination": 86.4972,
        "meta_ra_of_asc_node": 347.053,
        "meta_arg_of_pericenter": 212.4744,
        "meta_mean_anomaly": 147.5913,
        "meta_ephemeris_type": 0,
        "meta_classification_type": "U",
        "meta_norad_cat_id": 66954,
        "meta_element_set_no": 999,
        "meta_rev_at_epoch": 19,
        "meta_bstar": 9.675889e-06,
        "meta_mean_motion_dot": 2.5e-07,
        "meta_mean_motion_ddot": 0,
        "tle_line1": "1 66954U 25287B   25344.28833468  .00000025  00000+0  96759-5 0  9991",
        "tle_line2": "2 66954  86.4972 347.0530 0008180 212.4744 147.5913 13.69168896   198"
      },
      "geometry": {
        "type": "Point",
        "coordinates": [
          -17.416196296000148,
          -50.66655725922877
        ]
      }
    },
    {
      "type": "Feature",
      "properties": {
        "norad_id": 66955,
        "name": "HULIANWANG DIGUI 15C",
        "group": "last-30-days",
        "lat": -49.84777081652093,
        "lon": -17.310628747261102,
        "alt_km": 1010.4211393387568,
        "timestamp": "2025-12-10T18:56:58.834575+00:00",
        "meta_object_name": "HULIANWANG DIGUI 15C",
        "meta_object_id": "2025-287C",
        "meta_epoch": "2025-12-09T09:52:18.926688",
        "meta_mean_motion": 13.69296672,
        "meta_eccentricity": 0.00076324,
        "meta_inclination": 86.4914,
        "meta_ra_of_asc_node": 347.3632,
        "meta_arg_of_pericenter": 209.8722,
        "meta_mean_anomaly": 150.2003,
        "meta_ephemeris_type": 0,
        "meta_classification_type": "U",
        "meta_norad_cat_id": 66955,
        "meta_element_set_no": 999,
        "meta_rev_at_epoch": 7,
        "meta_bstar": 3.470494e-06,
        "meta_mean_motion_dot": 2e-07,
        "meta_mean_motion_ddot": 0,
        "tle_line1": "1 66955U 25287C   25343.41133017  .00000020  00000+0  34705-5 0  9997",
        "tle_line2": "2 66955  86.4914 347.3632 0007632 209.8722 150.2003 13.69296672    70"
      },
      "geometry": {
        "type": "Point",
        "coordinates": [
          -17.310628747261102,
          -49.84777081652093
        ]
      }
    },
    {
      "type": "Feature",
      "properties": {
        "norad_id": 66956,
        "name": "HULIANWANG DIGUI 15D",
        "group": "last-30-days",
        "lat": -49.17174577083393,
        "lon": -17.194970152029487,
        "alt_km": 1010.6207541700842,
        "timestamp": "2025-12-10T18:56:58.834585+00:00",
        "meta_object_name": "HULIANWANG DIGUI 15D",
        "meta_object_id": "2025-287D",
        "meta_epoch": "2025-12-10T06:54:53.091072",
        "meta_mean_motion": 13.69398776,
        "meta_eccentricity": 0.00070637,
        "meta_inclination": 86.4971,
        "meta_ra_of_asc_node": 347.053,
        "meta_arg_of_pericenter": 199.9716,
        "meta_mean_anomaly": 160.1168,
        "meta_ephemeris_type": 0,
        "meta_classification_type": "U",
        "meta_norad_cat_id": 66956,
        "meta_element_set_no": 999,
        "meta_rev_at_epoch": 19,
        "meta_bstar": 9.668117e-06,
        "meta_mean_motion_dot": 2.5e-07,
        "meta_mean_motion_ddot": 0,
        "tle_line1": "1 66956U 25287D   25344.28811448  .00000025  00000+0  96681-5 0  9991",
        "tle_line2": "2 66956  86.4971 347.0530 0007063 199.9716 160.1168 13.69398776   191"
      },
      "geometry": {
        "type": "Point",
        "coordinates": [
          -17.194970152029487,
          -49.17174577083393
        ]
      }
    },
    {
      "type": "Feature",
      "properties": {
        "norad_id": 66957,
        "name": "HULIANWANG DIGUI 15E",
        "group": "last-30-days",
        "lat": -48.463575435202785,
        "lon": -17.100812014749597,
        "alt_km": 1010.3932285921992,
        "timestamp": "2025-12-10T18:56:58.834595+00:00",
        "meta_object_name": "HULIANWANG DIGUI 15E",
        "meta_object_id": "2025-287E",
        "meta_epoch": "2025-12-10T06:54:44.091648",
        "meta_mean_motion": 13.69509093,
        "meta_eccentricity": 0.00068937,
        "meta_inclination": 86.4941,
        "meta_ra_of_asc_node": 347.0505,
        "meta_arg_of_pericenter": 197.7318,
        "meta_mean_anomaly": 162.3602,
        "meta_ephemeris_type": 0,
        "meta_classification_type": "U",
        "meta_norad_cat_id": 66957,
        "meta_element_set_no": 999,
        "meta_rev_at_epoch": 19,
        "meta_bstar": -0.00019855955,
        "meta_mean_motion_dot": -1.56e-06,
        "meta_mean_motion_ddot": 0,
        "tle_line1": "1 66957U 25287E   25344.28801032 -.00000156  00000+0 -19856-3 0  9994",
        "tle_line2": "2 66957  86.4941 347.0505 0006893 197.7318 162.3602 13.69509093   198"
      },
      "geometry": {
        "type": "Point",
        "coordinates": [
          -17.100812014749597,
          -48.463575435202785
        ]
      }
    },
    {
      "type": "Feature",
      "properties": {
        "norad_id": 66958,
        "name": "CZ-6A R/B",
        "group": "last-30-days",
        "lat": 60.830541182906735,
        "lon": 160.55807242373538,
        "alt_km": 828.8635779522492,
        "timestamp": "2025-12-10T18:56:58.834605+00:00",
        "meta_object_name": "CZ-6A R/B",
        "meta_object_id": "2025-287F",
        "meta_epoch": "2025-12-10T06:20:13.635744",
        "meta_mean_motion": 13.94918883,
        "meta_eccentricity": 0.01071678,
        "meta_inclination": 86.5058,
        "meta_ra_of_asc_node": 347.042,
        "meta_arg_of_pericenter": 109.571,
        "meta_mean_anomaly": 251.7073,
        "meta_ephemeris_type": 0,
        "meta_classification_type": "U",
        "meta_norad_cat_id": 66958,
        "meta_element_set_no": 999,
        "meta_rev_at_epoch": 19,
        "meta_bstar": 0.00083680097,
        "meta_mean_motion_dot": 1.198e-05,
        "meta_mean_motion_ddot": 0,
        "tle_line1": "1 66958U 25287F   25344.26404671  .00001198  00000+0  83680-3 0  9992",
        "tle_line2": "2 66958  86.5058 347.0420 0107167 109.5710 251.7073 13.94918883   192"
      },
      "geometry": {
        "type": "Point",
        "coordinates": [
          160.55807242373538,
          60.830541182906735
        ]
      }
    },
    {
      "type": "Feature",
      "properties": {
        "norad_id": 66988,
        "name": "YAOGAN-47",
        "group": "last-30-days",
        "lat": 69.81353163749739,
        "lon": -109.04291171275979,
        "alt_km": 487.33241415006887,
        "timestamp": "2025-12-10T18:56:58.834615+00:00",
        "meta_object_name": "YAOGAN-47",
        "meta_object_id": "2025-289A",
        "meta_epoch": "2025-12-10T10:35:37.042080",
        "meta_mean_motion": 15.2375358,
        "meta_eccentricity": 0.0003184,
        "meta_inclination": 97.5219,
        "meta_ra_of_asc_node": 49.5452,
        "meta_arg_of_pericenter": 188.4341,
        "meta_mean_anomaly": 171.6843,
        "meta_ephemeris_type": 0,
        "meta_classification_type": "U",
        "meta_norad_cat_id": 66988,
        "meta_element_set_no": 999,
        "meta_rev_at_epoch": 19,
        "meta_bstar": 0.00024588,
        "meta_mean_motion_dot": 5.84e-05,
        "meta_mean_motion_ddot": 0,
        "tle_line1": "1 66988U 25289A   25344.44140095  .00005840  00000+0  24588-3 0  9994",
        "tle_line2": "2 66988  97.5219  49.5452 0003184 188.4341 171.6843 15.23753580   195"
      },
      "geometry": {
        "type": "Point",
        "coordinates": [
          -109.04291171275979,
          69.81353163749739
        ]
      }
    }
  ]
}